ALOS (DAICHI)           
1 28931U 06002A   24012.85696186  .00002408  00000+0  45838-3 0  9993
2 28931  98.0177 329.5475 0000683  51.4056 308.7209 14.64974184958087
